{
  "type": "FeatureCollection",
  "features": [
    {
      "type": "Feature",
      "properties": {
        "norad_id": 39617,
        "name": "ASTRA 5B (EGNOS/PRN 123)",
        "group": "gnss",
        "lat": -0.01577810748152549,
        "lon": -155.7088411658458,
        "alt_km": 35781.33101882733,
        "timestamp": "2025-12-24T05:51:19.851458+00:00",
        "meta_object_name": "ASTRA 5B (EGNOS/PRN 123)",
        "meta_object_id": "2014-011B",
        "meta_epoch": "2025-12-23T21:01:38.691264",
        "meta_mean_motion": 1.00270798,
        "meta_eccentricity": 0.00045475,
        "meta_inclination": 0.0439,
        "meta_ra_of_asc_node": 10.5996,
        "meta_arg_of_pericenter": 268.7426,
        "meta_mean_anomaly": 152.2231,
        "meta_ephemeris_type": 0,
        "meta_classification_type": "U",
        "meta_norad_cat_id": 39617,
        "meta_element_set_no": 999,
        "meta_rev_at_epoch": 4291,
        "meta_bstar": 0,
        "meta_mean_motion_dot": 1.58e-06,
        "meta_mean_motion_ddot": 0,
        "tle_line1": "1 39617U 14011B   25357.87614226  .00000158  00000+0  00000+0 0  9993",
        "tle_line2": "2 39617   0.0439  10.5996 0004547 268.7426 152.2231  1.00270798 42915"
      },
      "geometry": {
        "type": "Point",
        "coordinates": [
          -155.7088411658458,
          -0.01577810748152549
        ]
      }
    },
    {
      "type": "Feature",
      "properties": {
        "norad_id": 39620,
        "name": "COSMOS 2492 (754)",
        "group": "gnss",
        "lat": -41.19575792419071,
        "lon": -63.7566939396676,
        "alt_km": 19098.514444139946,
        "timestamp": "2025-12-24T05:51:19.851472+00:00",
        "meta_object_name": "COSMOS 2492 (754)",
        "meta_object_id": "2014-012A",
        "meta_epoch": "2025-12-21T22:59:34.433088",
        "meta_mean_motion": 2.13103396,
        "meta_eccentricity": 0.00142426,
        "meta_inclination": 65.4026,
        "meta_ra_of_asc_node": 319.9579,
        "meta_arg_of_pericenter": 313.3292,
        "meta_mean_anomaly": 46.5466,
        "meta_ephemeris_type": 0,
        "meta_classification_type": "U",
        "meta_norad_cat_id": 39620,
        "meta_element_set_no": 999,
        "meta_rev_at_epoch": 9146,
        "meta_bstar": 0,
        "meta_mean_motion_dot": -4.2e-07,
        "meta_mean_motion_ddot": 0,
        "tle_line1": "1 39620U 14012A   25355.95803742 -.00000042  00000+0  00000+0 0  9991",
        "tle_line2": "2 39620  65.4026 319.9579 0014242 313.3292  46.5466  2.13103396 91463"
      },
      "geometry": {
        "type": "Point",
        "coordinates": [
          -63.7566939396676,
          -41.19575792419071
        ]
      }
    },
    {
      "type": "Feature",
      "properties": {
        "norad_id": 39635,
        "name": "IRNSS-1B",
        "group": "gnss",
        "lat": -3.6680849690599584,
        "lon": -123.11686001172203,
        "alt_km": 35865.04078507744,
        "timestamp": "2025-12-24T05:51:19.851487+00:00",
        "meta_object_name": "IRNSS-1B",
        "meta_object_id": "2014-017A",
        "meta_epoch": "2025-12-23T18:31:43.277952",
        "meta_mean_motion": 1.00271787,
        "meta_eccentricity": 0.00185524,
        "meta_inclination": 29.2369,
        "meta_ra_of_asc_node": 243.4044,
        "meta_arg_of_pericenter": 175.251,
        "meta_mean_anomaly": 6.964,
        "meta_ephemeris_type": 0,
        "meta_classification_type": "U",
        "meta_norad_cat_id": 39635,
        "meta_element_set_no": 999,
        "meta_rev_at_epoch": 4303,
        "meta_bstar": 0,
        "meta_mean_motion_dot": 1.43e-06,
        "meta_mean_motion_ddot": 0,
        "tle_line1": "1 39635U 14017A   25357.77202868  .00000143  00000+0  00000+0 0  9997",
        "tle_line2": "2 39635  29.2369 243.4044 0018552 175.2510   6.9640  1.00271787 43030"
      },
      "geometry": {
        "type": "Point",
        "coordinates": [
          -123.11686001172203,
          -3.6680849690599584
        ]
      }
    },
    {
      "type": "Feature",
      "properties": {
        "norad_id": 39727,
        "name": "LUCH 5V (SDCM/PRN 141)",
        "group": "gnss",
        "lat": -1.9394830425671725,
        "lon": -84.49328201848044,
        "alt_km": 35769.98823244113,
        "timestamp": "2025-12-24T05:51:19.851499+00:00",
        "meta_object_name": "LUCH 5V (SDCM/PRN 141)",
        "meta_object_id": "2014-023A",
        "meta_epoch": "2025-12-23T18:43:04.689696",
        "meta_mean_motion": 1.00274826,
        "meta_eccentricity": 0.00037272,
        "meta_inclination": 4.696,
        "meta_ra_of_asc_node": 71.4456,
        "meta_arg_of_pericenter": 214.0842,
        "meta_mean_anomaly": 182.5327,
        "meta_ephemeris_type": 0,
        "meta_classification_type": "U",
        "meta_norad_cat_id": 39727,
        "meta_element_set_no": 999,
        "meta_rev_at_epoch": 4260,
        "meta_bstar": 0,
        "meta_mean_motion_dot": -2.5e-06,
        "meta_mean_motion_ddot": 0,
        "tle_line1": "1 39727U 14023A   25357.77991539 -.00000250  00000+0  00000+0 0  9996",
        "tle_line2": "2 39727   4.6960  71.4456 0003727 214.0842 182.5327  1.00274826 42602"
      },
      "geometry": {
        "type": "Point",
        "coordinates": [
          -84.49328201848044,
          -1.9394830425671725
        ]
      }
    },
    {
      "type": "Feature",
      "properties": {
        "norad_id": 39741,
        "name": "GPS BIIF-6  (PRN 06)",
        "group": "gnss",
        "lat": -19.318894696124424,
        "lon": 171.6960524435166,
        "alt_km": 20230.682228737856,
        "timestamp": "2025-12-24T05:51:19.851510+00:00",
        "meta_object_name": "GPS BIIF-6  (PRN 06)",
        "meta_object_id": "2014-026A",
        "meta_epoch": "2025-12-23T23:04:28.187904",
        "meta_mean_motion": 2.00560551,
        "meta_eccentricity": 0.00394556,
        "meta_inclination": 56.5792,
        "meta_ra_of_asc_node": 338.3401,
        "meta_arg_of_pericenter": 319.3148,
        "meta_mean_anomaly": 40.3961,
        "meta_ephemeris_type": 0,
        "meta_classification_type": "U",
        "meta_norad_cat_id": 39741,
        "meta_element_set_no": 999,
        "meta_rev_at_epoch": 8502,
        "meta_bstar": 0,
        "meta_mean_motion_dot": -6e-07,
        "meta_mean_motion_ddot": 0,
        "tle_line1": "1 39741U 14026A   25357.96143736 -.00000060  00000+0  00000+0 0  9993",
        "tle_line2": "2 39741  56.5792 338.3401 0039455 319.3148  40.3961  2.00560551 85029"
      },
      "geometry": {
        "type": "Point",
        "coordinates": [
          171.6960524435166,
          -19.318894696124424
        ]
      }
    },
    {
      "type": "Feature",
      "properties": {
        "norad_id": 40001,
        "name": "COSMOS 2500 (755)",
        "group": "gnss",
        "lat": -1.5015220202279407,
        "lon": 140.31523215828759,
        "alt_km": 19114.740518184077,
        "timestamp": "2025-12-24T05:51:19.851521+00:00",
        "meta_object_name": "COSMOS 2500 (755)",
        "meta_object_id": "2014-032A",
        "meta_epoch": "2025-12-21T04:35:55.026240",
        "meta_mean_motion": 2.13106227,
        "meta_eccentricity": 0.00077299,
        "meta_inclination": 65.3386,
        "meta_ra_of_asc_node": 319.7453,
        "meta_arg_of_pericenter": 219.3736,
        "meta_mean_anomaly": 140.5635,
        "meta_ephemeris_type": 0,
        "meta_classification_type": "U",
        "meta_norad_cat_id": 40001,
        "meta_element_set_no": 999,
        "meta_rev_at_epoch": 8966,
        "meta_bstar": 0,
        "meta_mean_motion_dot": -4.7e-07,
        "meta_mean_motion_ddot": 0,
        "tle_line1": "1 40001U 14032A   25355.19160910 -.00000047  00000+0  00000+0 0  9992",
        "tle_line2": "2 40001  65.3386 319.7453 0007729 219.3736 140.5635  2.13106227 89663"
      },
      "geometry": {
        "type": "Point",
        "coordinates": [
          140.31523215828759,
          -1.5015220202279407
        ]
      }
    },
    {
      "type": "Feature",
      "properties": {
        "norad_id": 40105,
        "name": "GPS BIIF-7  (PRN 09)",
        "group": "gnss",
        "lat": 30.50475923422233,
        "lon": -108.67183213014613,
        "alt_km": 20097.666553594103,
        "timestamp": "2025-12-24T05:51:19.851532+00:00",
        "meta_object_name": "GPS BIIF-7  (PRN 09)",
        "meta_object_id": "2014-045A",
        "meta_epoch": "2025-12-23T13:11:32.096256",
        "meta_mean_motion": 2.00573211,
        "meta_eccentricity": 0.00324114,
        "meta_inclination": 55.2352,
        "meta_ra_of_asc_node": 95.4677,
        "meta_arg_of_pericenter": 120.1575,
        "meta_mean_anomaly": 240.1743,
        "meta_ephemeris_type": 0,
        "meta_classification_type": "U",
        "meta_norad_cat_id": 40105,
        "meta_element_set_no": 999,
        "meta_rev_at_epoch": 8255,
        "meta_bstar": 0,
        "meta_mean_motion_dot": 8e-08,
        "meta_mean_motion_ddot": 0,
        "tle_line1": "1 40105U 14045A   25357.54967704  .00000008  00000+0  00000+0 0  9994",
        "tle_line2": "2 40105  55.2352  95.4677 0032411 120.1575 240.1743  2.00573211 82556"
      },
      "geometry": {
        "type": "Point",
        "coordinates": [
          -108.67183213014613,
          30.50475923422233
        ]
      }
    }
  ]
}